<?xml version="1.0" encoding="UTF-8"?>
<kml xmlns="http://www.opengis.net/kml/2.2"><Document>
<name>Coopérative Exemple (données fictives)</name>
<Placemark><name>EX-0001</name><ExtendedData><Data name="producteur"><value>Producteur fictif 001</value></Data><Data name="surface_ha"><value>2.2</value></Data></ExtendedData><Point><coordinates>-5.600321,6.40014</coordinates></Point></Placemark>
<Placemark><name>EX-0002</name><ExtendedData><Data name="producteur"><value>Producteur fictif 002</value></Data><Data name="surface_ha"><value>3.17</value></Data></ExtendedData><Point><coordinates>-5.596529,6.399855</coordinates></Point></Placemark>
<Placemark><name>EX-0003</name><ExtendedData><Data name="producteur"><value>Producteur fictif 003</value></Data><Data name="surface_ha"><value>2.76</value></Data></ExtendedData><Point><coordinates>-5.592395,6.399677</coordinates></Point></Placemark>
<Placemark><name>EX-0004</name><ExtendedData><Data name="producteur"><value>Producteur fictif 004</value></Data><Data name="surface_ha"><value>3.56</value></Data></ExtendedData><Point><coordinates>-5.589402,6.400467</coordinates></Point></Placemark>
<Placemark><name>EX-0006</name><ExtendedData><Data name="producteur"><value>Producteur fictif 006</value></Data><Data name="surface_ha"><value>1.82</value></Data></ExtendedData><Point><coordinates>-5.581674,6.399948</coordinates></Point></Placemark>
<Placemark><name>EX-0007</name><ExtendedData><Data name="producteur"><value>Producteur fictif 007</value></Data><Data name="surface_ha"><value>2.38</value></Data></ExtendedData><Point><coordinates>-5.578622,6.399726</coordinates></Point></Placemark>
<Placemark><name>EX-0008</name><ExtendedData><Data name="producteur"><value>Producteur fictif 008</value></Data><Data name="surface_ha"><value>0.84</value></Data></ExtendedData><Point><coordinates>-5.574869,6.400163</coordinates></Point></Placemark>
<Placemark><name>EX-0009</name><ExtendedData><Data name="producteur"><value>Producteur fictif 009</value></Data><Data name="surface_ha"><value>1.39</value></Data></ExtendedData><Point><coordinates>-5.571252,6.399865</coordinates></Point></Placemark>
<Placemark><name>EX-0010</name><ExtendedData><Data name="producteur"><value>Producteur fictif 010</value></Data><Data name="surface_ha"><value>1.7</value></Data></ExtendedData><Point><coordinates>-5.567505,6.399935</coordinates></Point></Placemark>
<Placemark><name>EX-0011</name><ExtendedData><Data name="producteur"><value>Producteur fictif 011</value></Data><Data name="surface_ha"><value>3.19</value></Data></ExtendedData><Point><coordinates>-5.600291,6.403975</coordinates></Point></Placemark>
<Placemark><name>EX-0012</name><ExtendedData><Data name="producteur"><value>Producteur fictif 012</value></Data><Data name="surface_ha"><value>3.64</value></Data></ExtendedData><Point><coordinates>6.403445,-5.596293</coordinates></Point></Placemark>
<Placemark><name>EX-0013</name><ExtendedData><Data name="producteur"><value>Producteur fictif 013</value></Data><Data name="surface_ha"><value>3.5</value></Data></ExtendedData><Point><coordinates>-5.592737,6.403533</coordinates></Point></Placemark>
<Placemark><name>EX-0014</name><ExtendedData><Data name="producteur"><value>Producteur fictif 014</value></Data><Data name="surface_ha"><value>1.74</value></Data></ExtendedData><Point><coordinates>-5.589381,6.403796</coordinates></Point></Placemark>
<Placemark><name>EX-0015</name><ExtendedData><Data name="producteur"><value>Producteur fictif 015</value></Data><Data name="surface_ha"><value>1.48</value></Data></ExtendedData><Point><coordinates>-5.585838,6.403801</coordinates></Point></Placemark>
<Placemark><name>EX-0016</name><ExtendedData><Data name="producteur"><value>Producteur fictif 016</value></Data><Data name="surface_ha"><value>1.37</value></Data></ExtendedData><Point><coordinates>-5.582007,6.40368</coordinates></Point></Placemark>
<Placemark><name>EX-0017</name><ExtendedData><Data name="producteur"><value>Producteur fictif 017</value></Data><Data name="surface_ha"><value>2.66</value></Data></ExtendedData><Point><coordinates>-5.578169,6.403648</coordinates></Point></Placemark>
<Placemark><name>EX-0018</name><ExtendedData><Data name="producteur"><value>Producteur fictif 018</value></Data><Data name="surface_ha"><value>2.28</value></Data></ExtendedData><Point><coordinates>0.0,0.0</coordinates></Point></Placemark>
<Placemark><name>EX-0019</name><ExtendedData><Data name="producteur"><value>Producteur fictif 019</value></Data><Data name="surface_ha"><value>2.53</value></Data></ExtendedData><Point><coordinates>-5.57123,6.403776</coordinates></Point></Placemark>
<Placemark><name>EX-0020</name><ExtendedData><Data name="producteur"><value>Producteur fictif 020</value></Data><Data name="surface_ha"><value>3.18</value></Data></ExtendedData><Point><coordinates>-5.567684,6.403102</coordinates></Point></Placemark>
<Placemark><name>EX-0021</name><ExtendedData><Data name="producteur"><value>Producteur fictif 021</value></Data><Data name="surface_ha"><value>2.3</value></Data></ExtendedData><Point><coordinates>-5.599981,6.407027</coordinates></Point></Placemark>
<Placemark><name>EX-0022</name><ExtendedData><Data name="producteur"><value>Producteur fictif 022</value></Data><Data name="surface_ha"><value>3.77</value></Data></ExtendedData><Point><coordinates>-5.596807,6.407605</coordinates></Point></Placemark>
<Placemark><name>EX-0023</name><ExtendedData><Data name="producteur"><value>Producteur fictif 023</value></Data><Data name="surface_ha"><value>2.99</value></Data></ExtendedData><Point><coordinates>-1.623451,6.688231</coordinates></Point></Placemark>
<Placemark><name>EX-0024</name><ExtendedData><Data name="producteur"><value>Producteur fictif 024</value></Data><Data name="surface_ha"><value>2.05</value></Data></ExtendedData><Point><coordinates>-5.589386,6.407267</coordinates></Point></Placemark>
<Placemark><name>EX-0025</name><ExtendedData><Data name="producteur"><value>Producteur fictif 025</value></Data><Data name="surface_ha"><value>3.47</value></Data></ExtendedData><Point><coordinates>-5.585326,6.407658</coordinates></Point></Placemark>
<Placemark><name>EX-0026</name><ExtendedData><Data name="producteur"><value>Producteur fictif 026</value></Data><Data name="surface_ha"><value>3.64</value></Data></ExtendedData><Point><coordinates>-5.581879,6.40686</coordinates></Point></Placemark>
<Placemark><name>EX-0027</name><ExtendedData><Data name="producteur"><value>Producteur fictif 027</value></Data><Data name="surface_ha"><value>1.64</value></Data></ExtendedData><Point><coordinates>-5.578876,6.406998</coordinates></Point></Placemark>
<Placemark><name>EX-0028</name><ExtendedData><Data name="producteur"><value>Producteur fictif 028</value></Data><Data name="surface_ha"><value>1.08</value></Data></ExtendedData><Point><coordinates>-5.574628,6.407187</coordinates></Point></Placemark>
<Placemark><name>EX-0029</name><ExtendedData><Data name="producteur"><value>Producteur fictif 029</value></Data><Data name="surface_ha"><value>2.27</value></Data></ExtendedData><Point><coordinates>-5.571687,6.407304</coordinates></Point></Placemark>
<Placemark><name>EX-0030</name><ExtendedData><Data name="producteur"><value>Producteur fictif 030</value></Data><Data name="surface_ha"><value>3.47</value></Data></ExtendedData><Point><coordinates>-5.567499,6.407264</coordinates></Point></Placemark>
<Placemark><name>EX-0031</name><ExtendedData><Data name="producteur"><value>Producteur fictif 031</value></Data><Data name="surface_ha"><value>3.63</value></Data></ExtendedData><Point><coordinates>-5.6,6.41</coordinates></Point></Placemark>
<Placemark><name>EX-0032</name><ExtendedData><Data name="producteur"><value>Producteur fictif 032</value></Data><Data name="surface_ha"><value>2.78</value></Data></ExtendedData><Point><coordinates>-5.596112,6.410939</coordinates></Point></Placemark>
<Placemark><name>EX-0033</name><ExtendedData><Data name="producteur"><value>Producteur fictif 033</value></Data><Data name="surface_ha"><value>1.5</value></Data></ExtendedData><Point><coordinates>-5.592754,6.411217</coordinates></Point></Placemark>
<Placemark><name>EX-0034</name><ExtendedData><Data name="producteur"><value>Producteur fictif 034</value></Data><Data name="surface_ha"><value>1.2</value></Data></ExtendedData><Point><coordinates>-5.589101,6.411114</coordinates></Point></Placemark>
<Placemark><name>EX-0035</name><ExtendedData><Data name="producteur"><value>Producteur fictif 035</value></Data><Data name="surface_ha"><value>3.1</value></Data></ExtendedData><Point><coordinates>-5.585484,6.410703</coordinates></Point></Placemark>
<Placemark><name>EX-0036</name><ExtendedData><Data name="producteur"><value>Producteur fictif 036</value></Data><Data name="surface_ha"><value>3.37</value></Data></ExtendedData><Point><coordinates>-5.582432,6.410907</coordinates></Point></Placemark>
<Placemark><name>EX-0037</name><ExtendedData><Data name="producteur"><value>Producteur fictif 037</value></Data><Data name="surface_ha"><value>2.77</value></Data></ExtendedData><Point><coordinates>-5.578272,6.410621</coordinates></Point></Placemark>
<Placemark><name>EX-0038</name><ExtendedData><Data name="producteur"><value>Producteur fictif 038</value></Data><Data name="surface_ha"><value>1.19</value></Data></ExtendedData><Point><coordinates>-5.574962,6.410969</coordinates></Point></Placemark>
<Placemark><name>EX-0039</name><ExtendedData><Data name="producteur"><value>Producteur fictif 039</value></Data><Data name="surface_ha"><value>1.05</value></Data></ExtendedData><Point><coordinates>-5.57142,6.410333</coordinates></Point></Placemark>
<Placemark><name>EX-0040</name><ExtendedData><Data name="producteur"><value>Producteur fictif 040</value></Data><Data name="surface_ha"><value>2.35</value></Data></ExtendedData><Point><coordinates>-5.567545,6.410532</coordinates></Point></Placemark>
<Placemark><name>EX-0040</name><ExtendedData><Data name="producteur"><value>Producteur fictif 041</value></Data><Data name="surface_ha"><value>1.87</value></Data></ExtendedData><Point><coordinates>-5.59984,6.414781</coordinates></Point></Placemark>
<Placemark><name>EX-0042</name><ExtendedData><Data name="producteur"><value>Producteur fictif 042</value></Data><Data name="surface_ha"><value>1.15</value></Data></ExtendedData><Point><coordinates>-5.596581,6.414214</coordinates></Point></Placemark>
<Placemark><name>EX-0043</name><ExtendedData><Data name="producteur"><value>Producteur fictif 043</value></Data><Data name="surface_ha"><value>2.22</value></Data></ExtendedData><Point><coordinates>-5.592637,6.41472</coordinates></Point></Placemark>
<Placemark><name>EX-0044</name><ExtendedData><Data name="producteur"><value>Producteur fictif 044</value></Data><Data name="surface_ha"><value>2.9</value></Data></ExtendedData><Point><coordinates>-5.589142,6.414858</coordinates></Point></Placemark>
<Placemark><name>EX-0045</name><ExtendedData><Data name="producteur"><value>Producteur fictif 045</value></Data><Data name="surface_ha"><value>1.45</value></Data></ExtendedData><Point><coordinates>-5.585355,6.414789</coordinates></Point></Placemark>
<Placemark><name>EX-0046</name><ExtendedData><Data name="producteur"><value>Producteur fictif 046</value></Data><Data name="surface_ha"><value>3.33</value></Data></ExtendedData><Point><coordinates>-5.58185,6.414617</coordinates></Point></Placemark>
<Placemark><name>EX-0047</name><ExtendedData><Data name="producteur"><value>Producteur fictif 047</value></Data><Data name="surface_ha"><value>2.61</value></Data></ExtendedData><Point><coordinates>-5.578556,6.414589</coordinates></Point></Placemark>
<Placemark><name>EX-0048</name><ExtendedData><Data name="producteur"><value>Producteur fictif 048</value></Data><Data name="surface_ha"><value>1.86</value></Data></ExtendedData><Point><coordinates>-5.574891,6.414002</coordinates></Point></Placemark>
<Placemark><name>EX-0049</name><ExtendedData><Data name="producteur"><value>Producteur fictif 049</value></Data><Data name="surface_ha"><value>1.14</value></Data></ExtendedData><Point><coordinates>-5.570737,6.414117</coordinates></Point></Placemark>
<Placemark><name>EX-0050</name><ExtendedData><Data name="producteur"><value>Producteur fictif 050</value></Data><Data name="surface_ha"><value>6.2</value></Data></ExtendedData><Point><coordinates>-5.567732,6.414001</coordinates></Point></Placemark>
<Placemark><name>EX-0051</name><ExtendedData><Data name="producteur"><value>Producteur fictif 051</value></Data><Data name="surface_ha"><value>2.56</value></Data></ExtendedData><Point><coordinates>-5.599586,6.417819</coordinates></Point></Placemark>
<Placemark><name>EX-0052</name><ExtendedData><Data name="producteur"><value>Producteur fictif 052</value></Data><Data name="surface_ha"><value>1.18</value></Data></ExtendedData><Point><coordinates>-5.596661,6.418168</coordinates></Point></Placemark>
<Placemark><name>EX-0053</name><ExtendedData><Data name="producteur"><value>Producteur fictif 053</value></Data><Data name="surface_ha"><value>1.35</value></Data></ExtendedData><Point><coordinates>-5.59251,6.417923</coordinates></Point></Placemark>
<Placemark><name>EX-0054</name><ExtendedData><Data name="producteur"><value>Producteur fictif 054</value></Data><Data name="surface_ha"><value>2.11</value></Data></ExtendedData><Point><coordinates>-5.588942,6.418054</coordinates></Point></Placemark>
<Placemark><name>EX-0055</name><ExtendedData><Data name="producteur"><value>Producteur fictif 055</value></Data><Data name="surface_ha"><value>1.9</value></Data></ExtendedData><Point><coordinates>-5.585859,6.418281</coordinates></Point></Placemark>
<Placemark><name>EX-0056</name><ExtendedData><Data name="producteur"><value>Producteur fictif 056</value></Data><Data name="surface_ha"><value>0.89</value></Data></ExtendedData><Point><coordinates>-5.582457,6.418465</coordinates></Point></Placemark>
<Placemark><name>EX-0057</name><ExtendedData><Data name="producteur"><value>Producteur fictif 057</value></Data><Data name="surface_ha"><value>1.42</value></Data></ExtendedData><Point><coordinates>-5.57878,6.417966</coordinates></Point></Placemark>
<Placemark><name>EX-0058</name><ExtendedData><Data name="producteur"><value>Producteur fictif 058</value></Data><Data name="surface_ha"><value>3.67</value></Data></ExtendedData><Point><coordinates>-5.574965,6.418068</coordinates></Point></Placemark>
<Placemark><name>EX-0059</name><ExtendedData><Data name="producteur"><value>Producteur fictif 059</value></Data><Data name="surface_ha"><value>3.36</value></Data></ExtendedData><Point><coordinates>-5.570764,6.417574</coordinates></Point></Placemark>
<Placemark><name>EX-0060</name><ExtendedData><Data name="producteur"><value>Producteur fictif 060</value></Data><Data name="surface_ha"><value>1.69</value></Data></ExtendedData><Point><coordinates>-5.567932,6.418311</coordinates></Point></Placemark>
<Placemark><name>EX-0061</name><ExtendedData><Data name="producteur"><value>Producteur fictif 061</value></Data><Data name="surface_ha"><value>3.35</value></Data></ExtendedData><Point><coordinates>-5.567892,6.418331</coordinates></Point></Placemark>
<Placemark><name>EX-0062</name><ExtendedData><Data name="producteur"><value>Producteur fictif 062</value></Data><Data name="surface_ha"><value>2.68</value></Data></ExtendedData><Point><coordinates>-5.59592,6.421375</coordinates></Point></Placemark>
<Placemark><name>EX-0063</name><ExtendedData><Data name="producteur"><value>Producteur fictif 063</value></Data><Data name="surface_ha"><value>2.79</value></Data></ExtendedData><Point><coordinates>-5.592561,6.42118</coordinates></Point></Placemark>
<Placemark><name>EX-0064</name><ExtendedData><Data name="producteur"><value>Producteur fictif 064</value></Data><Data name="surface_ha"><value>2.45</value></Data></ExtendedData><Point><coordinates>-5.589378,6.421261</coordinates></Point></Placemark>
<Placemark><name>EX-0065</name><ExtendedData><Data name="producteur"><value>Producteur fictif 065</value></Data><Data name="surface_ha"><value>2.73</value></Data></ExtendedData><Point><coordinates>-5.585638,6.421677</coordinates></Point></Placemark>
<Placemark><name>EX-0066</name><ExtendedData><Data name="producteur"><value>Producteur fictif 066</value></Data><Data name="surface_ha"><value>1.33</value></Data></ExtendedData><Point><coordinates>-5.582001,6.422005</coordinates></Point></Placemark>
<Placemark><name>EX-0067</name><ExtendedData><Data name="producteur"><value>Producteur fictif 067</value></Data><Data name="surface_ha"><value>3.12</value></Data></ExtendedData><Point><coordinates>-5.578611,6.421456</coordinates></Point></Placemark>
<Placemark><name>EX-0068</name><ExtendedData><Data name="producteur"><value>Producteur fictif 068</value></Data><Data name="surface_ha"><value>3.03</value></Data></ExtendedData><Point><coordinates>-5.574648,6.421306</coordinates></Point></Placemark>
<Placemark><name>EX-0069</name><ExtendedData><Data name="producteur"><value>Producteur fictif 069</value></Data><Data name="surface_ha"><value>1.04</value></Data></ExtendedData><Point><coordinates>-5.570928,6.42187</coordinates></Point></Placemark>
<Placemark><name>EX-0070</name><ExtendedData><Data name="producteur"><value>Producteur fictif 070</value></Data><Data name="surface_ha"><value>3.44</value></Data></ExtendedData><Point><coordinates>-5.567888,6.421995</coordinates></Point></Placemark>
<Placemark><name>EX-0071</name><ExtendedData><Data name="producteur"><value>Producteur fictif 071</value></Data><Data name="surface_ha"><value>1.59</value></Data></ExtendedData><Point><coordinates>-5.567888,6.421995</coordinates></Point></Placemark>
<Placemark><name>EX-0072</name><ExtendedData><Data name="producteur"><value>Producteur fictif 072</value></Data><Data name="surface_ha"><value>1.65</value></Data></ExtendedData><Point><coordinates>-5.596484,6.424721</coordinates></Point></Placemark>
<Placemark><name>EX-0073</name><ExtendedData><Data name="producteur"><value>Producteur fictif 073</value></Data><Data name="surface_ha"><value>2.56</value></Data></ExtendedData><Point><coordinates>-5.593029,6.425619</coordinates></Point></Placemark>
<Placemark><name>EX-0074</name><ExtendedData><Data name="producteur"><value>Producteur fictif 074</value></Data><Data name="surface_ha"><value>2.28</value></Data></ExtendedData><Point><coordinates>-5.589522,6.425128</coordinates></Point></Placemark>
<Placemark><name>EX-0075</name><ExtendedData><Data name="producteur"><value>Producteur fictif 075</value></Data><Data name="surface_ha"><value>2.06</value></Data></ExtendedData><Point><coordinates>-5.585463,6.425232</coordinates></Point></Placemark>
<Placemark><name>EX-0076</name><ExtendedData><Data name="producteur"><value>Producteur fictif 076</value></Data><Data name="surface_ha"><value>3.73</value></Data></ExtendedData><Point><coordinates>-5.582189,6.425275</coordinates></Point></Placemark>
<Placemark><name>EX-0077</name><ExtendedData><Data name="producteur"><value>Producteur fictif 077</value></Data><Data name="surface_ha"><value>0.85</value></Data></ExtendedData><Point><coordinates>-5.578347,6.425587</coordinates></Point></Placemark>
<Placemark><name>EX-0078</name><ExtendedData><Data name="producteur"><value>Producteur fictif 078</value></Data><Data name="surface_ha"><value>2.51</value></Data></ExtendedData><Point><coordinates>-5.575097,6.425565</coordinates></Point></Placemark>
<Placemark><name>EX-0079</name><ExtendedData><Data name="producteur"><value>Producteur fictif 079</value></Data><Data name="surface_ha"><value>1.69</value></Data></ExtendedData><Point><coordinates>-5.571212,6.425069</coordinates></Point></Placemark>
<Placemark><name>EX-0080</name><ExtendedData><Data name="producteur"><value>Producteur fictif 080</value></Data><Data name="surface_ha"><value>2.11</value></Data></ExtendedData><Point><coordinates>-5.567421,6.425066</coordinates></Point></Placemark>
<Placemark><name>EX-0081</name><ExtendedData><Data name="producteur"><value>Producteur fictif 081</value></Data><Data name="surface_ha"><value>3.78</value></Data></ExtendedData><Point><coordinates>-5.599723,6.429246</coordinates></Point></Placemark>
<Placemark><name>EX-0082</name><ExtendedData><Data name="producteur"><value>Producteur fictif 082</value></Data><Data name="surface_ha"><value>0.87</value></Data></ExtendedData><Point><coordinates>-5.596415,6.428438</coordinates></Point></Placemark>
<Placemark><name>EX-0083</name><ExtendedData><Data name="producteur"><value>Producteur fictif 083</value></Data><Data name="surface_ha"><value>1.15</value></Data></ExtendedData><Point><coordinates>-5.592805,6.428376</coordinates></Point></Placemark>
<Placemark><name>EX-0084</name><ExtendedData><Data name="producteur"><value>Producteur fictif 084</value></Data><Data name="surface_ha"><value>1.29</value></Data></ExtendedData><Point><coordinates>-5.589465,6.429292</coordinates></Point></Placemark>
<Placemark><name>EX-0085</name><ExtendedData><Data name="producteur"><value>Producteur fictif 085</value></Data><Data name="surface_ha"><value>2.67</value></Data></ExtendedData><Point><coordinates>-5.58599,6.429216</coordinates></Point></Placemark>
<Placemark><name>EX-0086</name><ExtendedData><Data name="producteur"><value>Producteur fictif 086</value></Data><Data name="surface_ha"><value>3.6</value></Data></ExtendedData><Point><coordinates>-5.58176,6.428655</coordinates></Point></Placemark>
<Placemark><name>EX-0087</name><ExtendedData><Data name="producteur"><value>Producteur fictif 087</value></Data><Data name="surface_ha"><value>3.76</value></Data></ExtendedData><Point><coordinates>-5.577924,6.428858</coordinates></Point></Placemark>
<Placemark><name>EX-0088</name><ExtendedData><Data name="producteur"><value>Producteur fictif 088</value></Data><Data name="surface_ha"><value>3.16</value></Data></ExtendedData><Point><coordinates>-5.574794,6.42874</coordinates></Point></Placemark>
<Placemark><name>EX-0089</name><ExtendedData><Data name="producteur"><value>Producteur fictif 089</value></Data><Data name="surface_ha"><value>2.34</value></Data></ExtendedData><Point><coordinates>-5.571056,6.428501</coordinates></Point></Placemark>
<Placemark><name>EX-0090</name><ExtendedData><Data name="producteur"><value>Producteur fictif 090</value></Data><Data name="surface_ha"><value>2.43</value></Data></ExtendedData><Point><coordinates>-5.568084,6.429176</coordinates></Point></Placemark>
<Placemark><name>EX-0091</name><ExtendedData><Data name="producteur"><value>Producteur fictif 091</value></Data><Data name="surface_ha"><value>1.38</value></Data></ExtendedData><Polygon><outerBoundaryIs><LinearRing><coordinates>-5.59939,6.450039 -5.599475,6.450426 -5.600276,6.450494 -5.600505,6.450233 -5.600559,6.449638 -5.600056,6.449301 -5.599353,6.449733 -5.599326,6.449998 -5.59939,6.450039</coordinates></LinearRing></outerBoundaryIs></Polygon></Placemark>
<Placemark><name>EX-0092</name><ExtendedData><Data name="producteur"><value>Producteur fictif 092</value></Data><Data name="surface_ha"><value>4.57</value></Data></ExtendedData><Polygon><outerBoundaryIs><LinearRing><coordinates>-5.593094,6.450771 -5.594812,6.451071 -5.595234,6.450708 -5.595303,6.450606 -5.595273,6.450024 -5.594025,6.448858 -5.593793,6.448663 -5.592971,6.449354 -5.593094,6.450771</coordinates></LinearRing></outerBoundaryIs></Polygon></Placemark>
<Placemark><name>EX-0093</name><ExtendedData><Data name="producteur"><value>Producteur fictif 093</value></Data><Data name="surface_ha"><value>5.07</value></Data></ExtendedData><Polygon><outerBoundaryIs><LinearRing><coordinates>-5.586788,6.450398 -5.587443,6.451245 -5.589102,6.45089 -5.589195,6.450315 -5.589227,6.449908 -5.587154,6.448701 -5.587037,6.448794 -5.586982,6.449104 -5.586788,6.450398</coordinates></LinearRing></outerBoundaryIs></Polygon></Placemark>
<Placemark><name>EX-0094</name><ExtendedData><Data name="producteur"><value>Producteur fictif 094</value></Data><Data name="surface_ha"><value>4.82</value></Data></ExtendedData><Polygon><outerBoundaryIs><LinearRing><coordinates>-5.582549,6.451389 -5.582599,6.451381 -5.583105,6.450817 -5.583534,6.450253 -5.582021,6.448599 -5.581345,6.448528 -5.580821,6.448917 -5.58076,6.449012 -5.582549,6.451389</coordinates></LinearRing></outerBoundaryIs></Polygon></Placemark>
<Placemark><name>EX-0095</name><ExtendedData><Data name="producteur"><value>Producteur fictif 095</value></Data><Data name="surface_ha"><value>2.03</value></Data></ExtendedData><Polygon><outerBoundaryIs><LinearRing><coordinates>-5.575357,6.450881 -5.575526,6.450755 -5.575702,6.450948 -5.57686,6.449843 -5.577051,6.449805 -5.576571,6.449231 -5.576056,6.448991 -5.575803,6.449065 -5.575357,6.450881</coordinates></LinearRing></outerBoundaryIs></Polygon></Placemark>
<Placemark><name>EX-0096</name><ExtendedData><Data name="producteur"><value>Producteur fictif 096</value></Data><Data name="surface_ha"><value>5.52</value></Data></ExtendedData><Polygon><outerBoundaryIs><LinearRing><coordinates>-5.56882,6.450788 -5.569255,6.451296 -5.570998,6.45093 -5.569711,6.448315 -5.569686,6.448485 -5.568764,6.448734 -5.568703,6.449507 -5.568265,6.449934 -5.56882,6.450788</coordinates></LinearRing></outerBoundaryIs></Polygon></Placemark>
<Placemark><name>EX-0097</name><ExtendedData><Data name="producteur"><value>Producteur fictif 097</value></Data><Data name="surface_ha"><value>2.7</value></Data></ExtendedData><Polygon><outerBoundaryIs><LinearRing><coordinates>-5.598879,6.456215 -5.599007,6.456312 -5.599992,6.456906 -5.600368,6.457025 -5.60089,6.456391 -5.601027,6.456172 -5.600962,6.455845 -5.60058,6.455121 -5.598879,6.456215</coordinates></LinearRing></outerBoundaryIs></Polygon></Placemark>
<Placemark><name>EX-0098</name><ExtendedData><Data name="producteur"><value>Producteur fictif 098</value></Data><Data name="surface_ha"><value>3.04</value></Data></ExtendedData><Polygon><outerBoundaryIs><LinearRing><coordinates>-5.593017,6.456213 -5.593147,6.456306 -5.593796,6.457002 -5.594021,6.456837 -5.594814,6.456628 -5.594692,6.455461 -5.594785,6.45528 -5.593475,6.45506 -5.593017,6.456213</coordinates></LinearRing></outerBoundaryIs></Polygon></Placemark>
<Placemark><name>EX-0099</name><ExtendedData><Data name="producteur"><value>Producteur fictif 099</value></Data><Data name="surface_ha"><value>3.6</value></Data></ExtendedData><Polygon><outerBoundaryIs><LinearRing><coordinates>-5.586652,6.456052 -5.586856,6.456186 -5.587012,6.456562 -5.589119,6.456353 -5.58899,6.455587 -5.589261,6.455399 -5.589043,6.4551 -5.587911,6.454728 -5.586652,6.456052</coordinates></LinearRing></outerBoundaryIs></Polygon></Placemark>
<Placemark><name>EX-0100</name><ExtendedData><Data name="producteur"><value>Producteur fictif 100</value></Data><Data name="surface_ha"><value>1.61</value></Data></ExtendedData><Polygon><outerBoundaryIs><LinearRing><coordinates>-5.581485,6.456516 -5.58151,6.456637 -5.582234,6.456696 -5.582582,6.456369 -5.582567,6.456352 -5.582244,6.455247 -5.581851,6.455343 -5.581309,6.455686 -5.581485,6.456516</coordinates></LinearRing></outerBoundaryIs></Polygon></Placemark>
<Placemark><name>EX-0101</name><ExtendedData><Data name="producteur"><value>Producteur fictif 101</value></Data><Data name="surface_ha"><value>7.88</value></Data></ExtendedData><Polygon><outerBoundaryIs><LinearRing><coordinates>-5.576604522565809,6.455359361706064 -5.575004522565809,6.456959361706064 -5.575004522565809,6.455359361706064 -5.576604522565809,6.456959361706064 -5.576604522565809,6.455359361706064</coordinates></LinearRing></outerBoundaryIs></Polygon></Placemark>
<Placemark><name>EX-0102</name><ExtendedData><Data name="producteur"><value>Producteur fictif 102</value></Data><Data name="surface_ha"><value>1.08</value></Data></ExtendedData><Polygon><outerBoundaryIs><LinearRing><coordinates>-5.569755,6.45668 -5.570273,6.456536 -5.570565,6.456437 -5.57049,6.456339 -5.570299,6.455447 -5.569728,6.455481 -5.569698,6.45543 -5.569597,6.455603 -5.569755,6.45668</coordinates></LinearRing></outerBoundaryIs></Polygon></Placemark>
<Placemark><name>EX-0103</name><ExtendedData><Data name="producteur"><value>Producteur fictif 103</value></Data><Data name="surface_ha"><value>1.07</value></Data></ExtendedData><Polygon><outerBoundaryIs><LinearRing><coordinates>-5.599505,6.462544 -5.600692,6.462015 -5.600633,6.461875 -5.600488,6.461658 -5.600193,6.461424 -5.599964,6.46125 -5.599715,6.46144 -5.599603,6.461357 -5.599505,6.462544</coordinates></LinearRing></outerBoundaryIs></Polygon></Placemark>
<Placemark><name>EX-0104</name><ExtendedData><Data name="producteur"><value>Producteur fictif 104</value></Data><Data name="surface_ha"><value>1.46</value></Data></ExtendedData><Polygon><outerBoundaryIs><LinearRing><coordinates>-5.593485,6.462393 -5.594178,6.462695 -5.594608,6.462538 -5.594606,6.462365 -5.594658,6.462311 -5.594718,6.462028 -5.593814,6.461402 -5.593246,6.461994 -5.593485,6.462393</coordinates></LinearRing></outerBoundaryIs></Polygon></Placemark>
<Placemark><name>EX-0105</name><ExtendedData><Data name="producteur"><value>Producteur fictif 105</value></Data><Data name="surface_ha"><value>7.56</value></Data></ExtendedData><Polygon><outerBoundaryIs><LinearRing><coordinates>-5.58837,6.463763 -5.588876,6.463167 -5.589584,6.461041 -5.588786,6.460444 -5.58818,6.460553 -5.586493,6.461355 -5.586655,6.461512 -5.586287,6.461763 -5.58837,6.463763</coordinates></LinearRing></outerBoundaryIs></Polygon></Placemark>
<Placemark><name>EX-0106</name><ExtendedData><Data name="producteur"><value>Producteur fictif 106</value></Data><Data name="surface_ha"><value>7.56</value></Data></ExtendedData><Polygon><outerBoundaryIs><LinearRing><coordinates>-5.58777,6.463763 -5.588276,6.463167 -5.588984,6.461041 -5.588186,6.460444 -5.58758,6.460553 -5.585893,6.461355 -5.586055,6.461512 -5.585687,6.461763 -5.58777,6.463763</coordinates></LinearRing></outerBoundaryIs></Polygon></Placemark>
<Placemark><name>EX-0107</name><ExtendedData><Data name="producteur"><value>Producteur fictif 107</value></Data><Data name="surface_ha"><value>4.4</value></Data></ExtendedData><Polygon><outerBoundaryIs><LinearRing><coordinates>-5.575884,6.463224 -5.576758,6.462967 -5.577155,6.462639 -5.577238,6.462122 -5.577322,6.461874 -5.576009,6.460785 -5.575057,6.461259 -5.574919,6.46184 -5.575884,6.463224</coordinates></LinearRing></outerBoundaryIs></Polygon></Placemark>
<Placemark><name>EX-0108</name><ExtendedData><Data name="producteur"><value>Producteur fictif 108</value></Data><Data name="surface_ha"><value>4.58</value></Data></ExtendedData><Polygon><outerBoundaryIs><LinearRing><coordinates>-5.568643,6.462244 -5.568888,6.462433 -5.569227,6.463274 -5.569388,6.463086 -5.571081,6.462709 -5.570977,6.461107 -5.570596,6.460754 -5.570397,6.460515 -5.568643,6.462244</coordinates></LinearRing></outerBoundaryIs></Polygon></Placemark>
<Placemark><name>EX-0109</name><ExtendedData><Data name="producteur"><value>Producteur fictif 109</value></Data><Data name="surface_ha"><value>2.05</value></Data></ExtendedData><Polygon><outerBoundaryIs><LinearRing><coordinates>-5.599285,6.468318 -5.599462,6.468697 -5.600597,6.468544 -5.600902,6.46796 -5.600727,6.467854 -5.599962,6.467172 -5.59987,6.467172 -5.59919,6.4676 -5.599285,6.468318</coordinates></LinearRing></outerBoundaryIs></Polygon></Placemark>
<Placemark><name>EX-0110</name><ExtendedData><Data name="producteur"><value>Producteur fictif 110</value></Data><Data name="surface_ha"><value>2.62</value></Data></ExtendedData><Polygon><outerBoundaryIs><LinearRing><coordinates>-5.592602,6.468507 -5.594318,6.46946 -5.595282,6.468383 -5.595127,6.467081 -5.594587,6.466678 -5.594,6.466726 -5.593579,6.466594 -5.593008,6.46681 -5.592602,6.468507</coordinates></LinearRing></outerBoundaryIs></Polygon></Placemark>
<Placemark><name>EX-0111</name><ExtendedData><Data name="producteur"><value>Producteur fictif 111</value></Data><Data name="surface_ha"><value>2.88</value></Data></ExtendedData><Polygon><outerBoundaryIs><LinearRing><coordinates>-5.587522,6.468984 -5.589085,6.467369 -5.588866,6.467299 -5.588282,6.466983 -5.588244,6.467032 -5.587242,6.467268 -5.586961,6.467451 -5.586728,6.467758 -5.587522,6.468984</coordinates></LinearRing></outerBoundaryIs></Polygon></Placemark>
<Placemark><name>EX-0112</name><ExtendedData><Data name="producteur"><value>Producteur fictif 112</value></Data><Data name="surface_ha"><value>6.22</value></Data></ExtendedData><Polygon><outerBoundaryIs><LinearRing><coordinates>-5.580887,6.469168 -5.581774,6.469615 -5.583537,6.468449 -5.583444,6.467977 -5.581333,6.466643 -5.580787,6.46721 -5.580816,6.467355 -5.580523,6.467277 -5.580887,6.469168</coordinates></LinearRing></outerBoundaryIs></Polygon></Placemark>
<Placemark><name>EX-0113</name><ExtendedData><Data name="producteur"><value>Producteur fictif 113</value></Data><Data name="surface_ha"><value>2.78</value></Data></ExtendedData><Polygon><outerBoundaryIs><LinearRing><coordinates>-5.576158,6.468864 -5.576778,6.468609 -5.576892,6.467568 -5.575849,6.467112 -5.575654,6.467167 -5.575138,6.467585 -5.575018,6.467696 -5.574886,6.467998 -5.576158,6.468864</coordinates></LinearRing></outerBoundaryIs></Polygon></Placemark>
<Placemark><name>EX-0114</name><ExtendedData><Data name="producteur"><value>Producteur fictif 114</value></Data><Data name="surface_ha"><value>4.56</value></Data></ExtendedData><Polygon><outerBoundaryIs><LinearRing><coordinates>-5.568874,6.468617 -5.571311,6.468521 -5.571131,6.467098 -5.571098,6.467104 -5.56978,6.466691 -5.569596,6.466658 -5.569194,6.466861 -5.568885,6.467398 -5.568874,6.468617</coordinates></LinearRing></outerBoundaryIs></Polygon></Placemark>
<Placemark><name></name><ExtendedData><Data name="producteur"><value>Producteur fictif 115</value></Data><Data name="surface_ha"><value>7.34</value></Data></ExtendedData><Polygon><outerBoundaryIs><LinearRing><coordinates>-5.597919,6.475107 -5.600006,6.475761 -5.600696,6.476213 -5.601307,6.475195 -5.601666,6.475219 -5.602191,6.474451 -5.602148,6.473759 -5.601931,6.472972 -5.597919,6.475107</coordinates></LinearRing></outerBoundaryIs></Polygon></Placemark>
<Placemark><name>EX-0116</name><ExtendedData><Data name="producteur"><value>Producteur fictif 116</value></Data><Data name="surface_ha"><value>7.17</value></Data></ExtendedData><Polygon><outerBoundaryIs><LinearRing><coordinates>-5.596175,6.47216 -5.595675,6.471699 -5.594564,6.471109 -5.593915,6.471069 -5.593184,6.471739 -5.591639,6.473095 -5.591327,6.473332 -5.591356,6.473921 -5.596175,6.47216</coordinates></LinearRing></outerBoundaryIs></Polygon></Placemark>
<Placemark><name>EX-0117</name><ExtendedData><Data name="producteur"><value>Producteur fictif 117</value></Data><Data name="surface_ha"><value>7.6</value></Data></ExtendedData><Polygon><outerBoundaryIs><LinearRing><coordinates>-5.586788,6.474756 -5.588161,6.475616 -5.589236,6.475294 -5.589693,6.47378 -5.589031,6.472982 -5.588292,6.47224 -5.587448,6.472623 -5.587329,6.472763 -5.586788,6.474756</coordinates></LinearRing></outerBoundaryIs></Polygon></Placemark>
<Placemark><name>EX-0118</name><ExtendedData><Data name="producteur"><value>Producteur fictif 118</value></Data><Data name="surface_ha"><value>6.48</value></Data></ExtendedData><Polygon><outerBoundaryIs><LinearRing><coordinates>-5.584261,6.473462 -5.583439,6.472423 -5.581928,6.471381 -5.580923,6.472311 -5.580264,6.472383 -5.579946,6.472386 -5.579769,6.472908 -5.579714,6.473311 -5.584261,6.473462</coordinates></LinearRing></outerBoundaryIs></Polygon></Placemark>
<Placemark><name>EX-0119</name><ExtendedData><Data name="producteur"><value>Producteur fictif 119</value></Data><Data name="surface_ha"><value>3.01</value></Data></ExtendedData><Polygon><outerBoundaryIs><LinearRing><coordinates>-5.575827,6.4749 -5.575979,6.475061 -5.576783,6.474681 -5.577053,6.47415 -5.576947,6.474022 -5.57604,6.473113 -5.575733,6.473077 -5.574949,6.473995 -5.575827,6.4749</coordinates></LinearRing></outerBoundaryIs></Polygon></Placemark>
<Placemark><name>EX-0120</name><ExtendedData><Data name="producteur"><value>Producteur fictif 120</value></Data><Data name="surface_ha"><value>3.01</value></Data></ExtendedData><Polygon><outerBoundaryIs><LinearRing><coordinates>-5.575827,6.4749 -5.575979,6.475061 -5.576783,6.474681 -5.577053,6.47415 -5.576947,6.474022 -5.57604,6.473113 -5.575733,6.473077 -5.574949,6.473995 -5.575827,6.4749</coordinates></LinearRing></outerBoundaryIs></Polygon></Placemark>
</Document></kml>