{
"type": "FeatureCollection",
"name": "cooperative_exemple",
"crs": { "type": "name", "properties": { "name": "urn:ogc:def:crs:OGC:1.3:CRS84" } },
"features": [
{ "type": "Feature", "properties": { "plot_id": "EX-0001", "producteur": "Producteur fictif 001", "surface_ha": 2.2 }, "geometry": { "type": "Point", "coordinates": [ -5.600321, 6.40014 ] } },
{ "type": "Feature", "properties": { "plot_id": "EX-0002", "producteur": "Producteur fictif 002", "surface_ha": 3.17 }, "geometry": { "type": "Point", "coordinates": [ -5.596529, 6.399855 ] } },
{ "type": "Feature", "properties": { "plot_id": "EX-0003", "producteur": "Producteur fictif 003", "surface_ha": 2.76 }, "geometry": { "type": "Point", "coordinates": [ -5.592395, 6.399677 ] } },
{ "type": "Feature", "properties": { "plot_id": "EX-0004", "producteur": "Producteur fictif 004", "surface_ha": 3.56 }, "geometry": { "type": "Point", "coordinates": [ -5.589402, 6.400467 ] } },
{ "type": "Feature", "properties": { "plot_id": "EX-0005", "producteur": "Producteur fictif 005", "surface_ha": 2.35 }, "geometry": null },
{ "type": "Feature", "properties": { "plot_id": "EX-0006", "producteur": "Producteur fictif 006", "surface_ha": 1.82 }, "geometry": { "type": "Point", "coordinates": [ -5.581674, 6.399948 ] } },
{ "type": "Feature", "properties": { "plot_id": "EX-0007", "producteur": "Producteur fictif 007", "surface_ha": 2.38 }, "geometry": { "type": "Point", "coordinates": [ -5.578622, 6.399726 ] } },
{ "type": "Feature", "properties": { "plot_id": "EX-0008", "producteur": "Producteur fictif 008", "surface_ha": 0.84 }, "geometry": { "type": "Point", "coordinates": [ -5.574869, 6.400163 ] } },
{ "type": "Feature", "properties": { "plot_id": "EX-0009", "producteur": "Producteur fictif 009", "surface_ha": 1.39 }, "geometry": { "type": "Point", "coordinates": [ -5.571252, 6.399865 ] } },
{ "type": "Feature", "properties": { "plot_id": "EX-0010", "producteur": "Producteur fictif 010", "surface_ha": 1.7 }, "geometry": { "type": "Point", "coordinates": [ -5.567505, 6.399935 ] } },
{ "type": "Feature", "properties": { "plot_id": "EX-0011", "producteur": "Producteur fictif 011", "surface_ha": 3.19 }, "geometry": { "type": "Point", "coordinates": [ -5.600291, 6.403975 ] } },
{ "type": "Feature", "properties": { "plot_id": "EX-0012", "producteur": "Producteur fictif 012", "surface_ha": 3.64 }, "geometry": { "type": "Point", "coordinates": [ 6.403445, -5.596293 ] } },
{ "type": "Feature", "properties": { "plot_id": "EX-0013", "producteur": "Producteur fictif 013", "surface_ha": 3.5 }, "geometry": { "type": "Point", "coordinates": [ -5.592737, 6.403533 ] } },
{ "type": "Feature", "properties": { "plot_id": "EX-0014", "producteur": "Producteur fictif 014", "surface_ha": 1.74 }, "geometry": { "type": "Point", "coordinates": [ -5.589381, 6.403796 ] } },
{ "type": "Feature", "properties": { "plot_id": "EX-0015", "producteur": "Producteur fictif 015", "surface_ha": 1.48 }, "geometry": { "type": "Point", "coordinates": [ -5.585838, 6.403801 ] } },
{ "type": "Feature", "properties": { "plot_id": "EX-0016", "producteur": "Producteur fictif 016", "surface_ha": 1.37 }, "geometry": { "type": "Point", "coordinates": [ -5.582007, 6.40368 ] } },
{ "type": "Feature", "properties": { "plot_id": "EX-0017", "producteur": "Producteur fictif 017", "surface_ha": 2.66 }, "geometry": { "type": "Point", "coordinates": [ -5.578169, 6.403648 ] } },
{ "type": "Feature", "properties": { "plot_id": "EX-0018", "producteur": "Producteur fictif 018", "surface_ha": 2.28 }, "geometry": { "type": "Point", "coordinates": [ 0.0, 0.0 ] } },
{ "type": "Feature", "properties": { "plot_id": "EX-0019", "producteur": "Producteur fictif 019", "surface_ha": 2.53 }, "geometry": { "type": "Point", "coordinates": [ -5.57123, 6.403776 ] } },
{ "type": "Feature", "properties": { "plot_id": "EX-0020", "producteur": "Producteur fictif 020", "surface_ha": 3.18 }, "geometry": { "type": "Point", "coordinates": [ -5.567684, 6.403102 ] } },
{ "type": "Feature", "properties": { "plot_id": "EX-0021", "producteur": "Producteur fictif 021", "surface_ha": 2.3 }, "geometry": { "type": "Point", "coordinates": [ -5.599981, 6.407027 ] } },
{ "type": "Feature", "properties": { "plot_id": "EX-0022", "producteur": "Producteur fictif 022", "surface_ha": 3.77 }, "geometry": { "type": "Point", "coordinates": [ -5.596807, 6.407605 ] } },
{ "type": "Feature", "properties": { "plot_id": "EX-0023", "producteur": "Producteur fictif 023", "surface_ha": 2.99 }, "geometry": { "type": "Point", "coordinates": [ -1.623451, 6.688231 ] } },
{ "type": "Feature", "properties": { "plot_id": "EX-0024", "producteur": "Producteur fictif 024", "surface_ha": 2.05 }, "geometry": { "type": "Point", "coordinates": [ -5.589386, 6.407267 ] } },
{ "type": "Feature", "properties": { "plot_id": "EX-0025", "producteur": "Producteur fictif 025", "surface_ha": 3.47 }, "geometry": { "type": "Point", "coordinates": [ -5.585326, 6.407658 ] } },
{ "type": "Feature", "properties": { "plot_id": "EX-0026", "producteur": "Producteur fictif 026", "surface_ha": 3.64 }, "geometry": { "type": "Point", "coordinates": [ -5.581879, 6.40686 ] } },
{ "type": "Feature", "properties": { "plot_id": "EX-0027", "producteur": "Producteur fictif 027", "surface_ha": 1.64 }, "geometry": { "type": "Point", "coordinates": [ -5.578876, 6.406998 ] } },
{ "type": "Feature", "properties": { "plot_id": "EX-0028", "producteur": "Producteur fictif 028", "surface_ha": 1.08 }, "geometry": { "type": "Point", "coordinates": [ -5.574628, 6.407187 ] } },
{ "type": "Feature", "properties": { "plot_id": "EX-0029", "producteur": "Producteur fictif 029", "surface_ha": 2.27 }, "geometry": { "type": "Point", "coordinates": [ -5.571687, 6.407304 ] } },
{ "type": "Feature", "properties": { "plot_id": "EX-0030", "producteur": "Producteur fictif 030", "surface_ha": 3.47 }, "geometry": { "type": "Point", "coordinates": [ -5.567499, 6.407264 ] } },
{ "type": "Feature", "properties": { "plot_id": "EX-0031", "producteur": "Producteur fictif 031", "surface_ha": 3.63 }, "geometry": { "type": "Point", "coordinates": [ -5.6, 6.41 ] } },
{ "type": "Feature", "properties": { "plot_id": "EX-0032", "producteur": "Producteur fictif 032", "surface_ha": 2.78 }, "geometry": { "type": "Point", "coordinates": [ -5.596112, 6.410939 ] } },
{ "type": "Feature", "properties": { "plot_id": "EX-0033", "producteur": "Producteur fictif 033", "surface_ha": 1.5 }, "geometry": { "type": "Point", "coordinates": [ -5.592754, 6.411217 ] } },
{ "type": "Feature", "properties": { "plot_id": "EX-0034", "producteur": "Producteur fictif 034", "surface_ha": 1.2 }, "geometry": { "type": "Point", "coordinates": [ -5.589101, 6.411114 ] } },
{ "type": "Feature", "properties": { "plot_id": "EX-0035", "producteur": "Producteur fictif 035", "surface_ha": 3.1 }, "geometry": { "type": "Point", "coordinates": [ -5.585484, 6.410703 ] } },
{ "type": "Feature", "properties": { "plot_id": "EX-0036", "producteur": "Producteur fictif 036", "surface_ha": 3.37 }, "geometry": { "type": "Point", "coordinates": [ -5.582432, 6.410907 ] } },
{ "type": "Feature", "properties": { "plot_id": "EX-0037", "producteur": "Producteur fictif 037", "surface_ha": 2.77 }, "geometry": { "type": "Point", "coordinates": [ -5.578272, 6.410621 ] } },
{ "type": "Feature", "properties": { "plot_id": "EX-0038", "producteur": "Producteur fictif 038", "surface_ha": 1.19 }, "geometry": { "type": "Point", "coordinates": [ -5.574962, 6.410969 ] } },
{ "type": "Feature", "properties": { "plot_id": "EX-0039", "producteur": "Producteur fictif 039", "surface_ha": 1.05 }, "geometry": { "type": "Point", "coordinates": [ -5.57142, 6.410333 ] } },
{ "type": "Feature", "properties": { "plot_id": "EX-0040", "producteur": "Producteur fictif 040", "surface_ha": 2.35 }, "geometry": { "type": "Point", "coordinates": [ -5.567545, 6.410532 ] } },
{ "type": "Feature", "properties": { "plot_id": "EX-0040", "producteur": "Producteur fictif 041", "surface_ha": 1.87 }, "geometry": { "type": "Point", "coordinates": [ -5.59984, 6.414781 ] } },
{ "type": "Feature", "properties": { "plot_id": "EX-0042", "producteur": "Producteur fictif 042", "surface_ha": 1.15 }, "geometry": { "type": "Point", "coordinates": [ -5.596581, 6.414214 ] } },
{ "type": "Feature", "properties": { "plot_id": "EX-0043", "producteur": "Producteur fictif 043", "surface_ha": 2.22 }, "geometry": { "type": "Point", "coordinates": [ -5.592637, 6.41472 ] } },
{ "type": "Feature", "properties": { "plot_id": "EX-0044", "producteur": "Producteur fictif 044", "surface_ha": 2.9 }, "geometry": { "type": "Point", "coordinates": [ -5.589142, 6.414858 ] } },
{ "type": "Feature", "properties": { "plot_id": "EX-0045", "producteur": "Producteur fictif 045", "surface_ha": 1.45 }, "geometry": { "type": "Point", "coordinates": [ -5.585355, 6.414789 ] } },
{ "type": "Feature", "properties": { "plot_id": "EX-0046", "producteur": "Producteur fictif 046", "surface_ha": 3.33 }, "geometry": { "type": "Point", "coordinates": [ -5.58185, 6.414617 ] } },
{ "type": "Feature", "properties": { "plot_id": "EX-0047", "producteur": "Producteur fictif 047", "surface_ha": 2.61 }, "geometry": { "type": "Point", "coordinates": [ -5.578556, 6.414589 ] } },
{ "type": "Feature", "properties": { "plot_id": "EX-0048", "producteur": "Producteur fictif 048", "surface_ha": 1.86 }, "geometry": { "type": "Point", "coordinates": [ -5.574891, 6.414002 ] } },
{ "type": "Feature", "properties": { "plot_id": "EX-0049", "producteur": "Producteur fictif 049", "surface_ha": 1.14 }, "geometry": { "type": "Point", "coordinates": [ -5.570737, 6.414117 ] } },
{ "type": "Feature", "properties": { "plot_id": "EX-0050", "producteur": "Producteur fictif 050", "surface_ha": 6.2 }, "geometry": { "type": "Point", "coordinates": [ -5.567732, 6.414001 ] } },
{ "type": "Feature", "properties": { "plot_id": "EX-0051", "producteur": "Producteur fictif 051", "surface_ha": 2.56 }, "geometry": { "type": "Point", "coordinates": [ -5.599586, 6.417819 ] } },
{ "type": "Feature", "properties": { "plot_id": "EX-0052", "producteur": "Producteur fictif 052", "surface_ha": 1.18 }, "geometry": { "type": "Point", "coordinates": [ -5.596661, 6.418168 ] } },
{ "type": "Feature", "properties": { "plot_id": "EX-0053", "producteur": "Producteur fictif 053", "surface_ha": 1.35 }, "geometry": { "type": "Point", "coordinates": [ -5.59251, 6.417923 ] } },
{ "type": "Feature", "properties": { "plot_id": "EX-0054", "producteur": "Producteur fictif 054", "surface_ha": 2.11 }, "geometry": { "type": "Point", "coordinates": [ -5.588942, 6.418054 ] } },
{ "type": "Feature", "properties": { "plot_id": "EX-0055", "producteur": "Producteur fictif 055", "surface_ha": 1.9 }, "geometry": { "type": "Point", "coordinates": [ -5.585859, 6.418281 ] } },
{ "type": "Feature", "properties": { "plot_id": "EX-0056", "producteur": "Producteur fictif 056", "surface_ha": 0.89 }, "geometry": { "type": "Point", "coordinates": [ -5.582457, 6.418465 ] } },
{ "type": "Feature", "properties": { "plot_id": "EX-0057", "producteur": "Producteur fictif 057", "surface_ha": 1.42 }, "geometry": { "type": "Point", "coordinates": [ -5.57878, 6.417966 ] } },
{ "type": "Feature", "properties": { "plot_id": "EX-0058", "producteur": "Producteur fictif 058", "surface_ha": 3.67 }, "geometry": { "type": "Point", "coordinates": [ -5.574965, 6.418068 ] } },
{ "type": "Feature", "properties": { "plot_id": "EX-0059", "producteur": "Producteur fictif 059", "surface_ha": 3.36 }, "geometry": { "type": "Point", "coordinates": [ -5.570764, 6.417574 ] } },
{ "type": "Feature", "properties": { "plot_id": "EX-0060", "producteur": "Producteur fictif 060", "surface_ha": 1.69 }, "geometry": { "type": "Point", "coordinates": [ -5.567932, 6.418311 ] } },
{ "type": "Feature", "properties": { "plot_id": "EX-0061", "producteur": "Producteur fictif 061", "surface_ha": 3.35 }, "geometry": { "type": "Point", "coordinates": [ -5.567892, 6.418331 ] } },
{ "type": "Feature", "properties": { "plot_id": "EX-0062", "producteur": "Producteur fictif 062", "surface_ha": 2.68 }, "geometry": { "type": "Point", "coordinates": [ -5.59592, 6.421375 ] } },
{ "type": "Feature", "properties": { "plot_id": "EX-0063", "producteur": "Producteur fictif 063", "surface_ha": 2.79 }, "geometry": { "type": "Point", "coordinates": [ -5.592561, 6.42118 ] } },
{ "type": "Feature", "properties": { "plot_id": "EX-0064", "producteur": "Producteur fictif 064", "surface_ha": 2.45 }, "geometry": { "type": "Point", "coordinates": [ -5.589378, 6.421261 ] } },
{ "type": "Feature", "properties": { "plot_id": "EX-0065", "producteur": "Producteur fictif 065", "surface_ha": 2.73 }, "geometry": { "type": "Point", "coordinates": [ -5.585638, 6.421677 ] } },
{ "type": "Feature", "properties": { "plot_id": "EX-0066", "producteur": "Producteur fictif 066", "surface_ha": 1.33 }, "geometry": { "type": "Point", "coordinates": [ -5.582001, 6.422005 ] } },
{ "type": "Feature", "properties": { "plot_id": "EX-0067", "producteur": "Producteur fictif 067", "surface_ha": 3.12 }, "geometry": { "type": "Point", "coordinates": [ -5.578611, 6.421456 ] } },
{ "type": "Feature", "properties": { "plot_id": "EX-0068", "producteur": "Producteur fictif 068", "surface_ha": 3.03 }, "geometry": { "type": "Point", "coordinates": [ -5.574648, 6.421306 ] } },
{ "type": "Feature", "properties": { "plot_id": "EX-0069", "producteur": "Producteur fictif 069", "surface_ha": 1.04 }, "geometry": { "type": "Point", "coordinates": [ -5.570928, 6.42187 ] } },
{ "type": "Feature", "properties": { "plot_id": "EX-0070", "producteur": "Producteur fictif 070", "surface_ha": 3.44 }, "geometry": { "type": "Point", "coordinates": [ -5.567888, 6.421995 ] } },
{ "type": "Feature", "properties": { "plot_id": "EX-0071", "producteur": "Producteur fictif 071", "surface_ha": 1.59 }, "geometry": { "type": "Point", "coordinates": [ -5.567888, 6.421995 ] } },
{ "type": "Feature", "properties": { "plot_id": "EX-0072", "producteur": "Producteur fictif 072", "surface_ha": 1.65 }, "geometry": { "type": "Point", "coordinates": [ -5.596484, 6.424721 ] } },
{ "type": "Feature", "properties": { "plot_id": "EX-0073", "producteur": "Producteur fictif 073", "surface_ha": 2.56 }, "geometry": { "type": "Point", "coordinates": [ -5.593029, 6.425619 ] } },
{ "type": "Feature", "properties": { "plot_id": "EX-0074", "producteur": "Producteur fictif 074", "surface_ha": 2.28 }, "geometry": { "type": "Point", "coordinates": [ -5.589522, 6.425128 ] } },
{ "type": "Feature", "properties": { "plot_id": "EX-0075", "producteur": "Producteur fictif 075", "surface_ha": 2.06 }, "geometry": { "type": "Point", "coordinates": [ -5.585463, 6.425232 ] } },
{ "type": "Feature", "properties": { "plot_id": "EX-0076", "producteur": "Producteur fictif 076", "surface_ha": 3.73 }, "geometry": { "type": "Point", "coordinates": [ -5.582189, 6.425275 ] } },
{ "type": "Feature", "properties": { "plot_id": "EX-0077", "producteur": "Producteur fictif 077", "surface_ha": 0.85 }, "geometry": { "type": "Point", "coordinates": [ -5.578347, 6.425587 ] } },
{ "type": "Feature", "properties": { "plot_id": "EX-0078", "producteur": "Producteur fictif 078", "surface_ha": 2.51 }, "geometry": { "type": "Point", "coordinates": [ -5.575097, 6.425565 ] } },
{ "type": "Feature", "properties": { "plot_id": "EX-0079", "producteur": "Producteur fictif 079", "surface_ha": 1.69 }, "geometry": { "type": "Point", "coordinates": [ -5.571212, 6.425069 ] } },
{ "type": "Feature", "properties": { "plot_id": "EX-0080", "producteur": "Producteur fictif 080", "surface_ha": 2.11 }, "geometry": { "type": "Point", "coordinates": [ -5.567421, 6.425066 ] } },
{ "type": "Feature", "properties": { "plot_id": "EX-0081", "producteur": "Producteur fictif 081", "surface_ha": 3.78 }, "geometry": { "type": "Point", "coordinates": [ -5.599723, 6.429246 ] } },
{ "type": "Feature", "properties": { "plot_id": "EX-0082", "producteur": "Producteur fictif 082", "surface_ha": 0.87 }, "geometry": { "type": "Point", "coordinates": [ -5.596415, 6.428438 ] } },
{ "type": "Feature", "properties": { "plot_id": "EX-0083", "producteur": "Producteur fictif 083", "surface_ha": 1.15 }, "geometry": { "type": "Point", "coordinates": [ -5.592805, 6.428376 ] } },
{ "type": "Feature", "properties": { "plot_id": "EX-0084", "producteur": "Producteur fictif 084", "surface_ha": 1.29 }, "geometry": { "type": "Point", "coordinates": [ -5.589465, 6.429292 ] } },
{ "type": "Feature", "properties": { "plot_id": "EX-0085", "producteur": "Producteur fictif 085", "surface_ha": 2.67 }, "geometry": { "type": "Point", "coordinates": [ -5.58599, 6.429216 ] } },
{ "type": "Feature", "properties": { "plot_id": "EX-0086", "producteur": "Producteur fictif 086", "surface_ha": 3.6 }, "geometry": { "type": "Point", "coordinates": [ -5.58176, 6.428655 ] } },
{ "type": "Feature", "properties": { "plot_id": "EX-0087", "producteur": "Producteur fictif 087", "surface_ha": 3.76 }, "geometry": { "type": "Point", "coordinates": [ -5.577924, 6.428858 ] } },
{ "type": "Feature", "properties": { "plot_id": "EX-0088", "producteur": "Producteur fictif 088", "surface_ha": 3.16 }, "geometry": { "type": "Point", "coordinates": [ -5.574794, 6.42874 ] } },
{ "type": "Feature", "properties": { "plot_id": "EX-0089", "producteur": "Producteur fictif 089", "surface_ha": 2.34 }, "geometry": { "type": "Point", "coordinates": [ -5.571056, 6.428501 ] } },
{ "type": "Feature", "properties": { "plot_id": "EX-0090", "producteur": "Producteur fictif 090", "surface_ha": 2.43 }, "geometry": { "type": "Point", "coordinates": [ -5.568084, 6.429176 ] } },
{ "type": "Feature", "properties": { "plot_id": "EX-0091", "producteur": "Producteur fictif 091", "surface_ha": 1.38 }, "geometry": { "type": "Polygon", "coordinates": [ [ [ -5.59939, 6.450039 ], [ -5.599475, 6.450426 ], [ -5.600276, 6.450494 ], [ -5.600505, 6.450233 ], [ -5.600559, 6.449638 ], [ -5.600056, 6.449301 ], [ -5.599353, 6.449733 ], [ -5.599326, 6.449998 ], [ -5.59939, 6.450039 ] ] ] } },
{ "type": "Feature", "properties": { "plot_id": "EX-0092", "producteur": "Producteur fictif 092", "surface_ha": 4.57 }, "geometry": { "type": "Polygon", "coordinates": [ [ [ -5.593094, 6.450771 ], [ -5.594812, 6.451071 ], [ -5.595234, 6.450708 ], [ -5.595303, 6.450606 ], [ -5.595273, 6.450024 ], [ -5.594025, 6.448858 ], [ -5.593793, 6.448663 ], [ -5.592971, 6.449354 ], [ -5.593094, 6.450771 ] ] ] } },
{ "type": "Feature", "properties": { "plot_id": "EX-0093", "producteur": "Producteur fictif 093", "surface_ha": 5.07 }, "geometry": { "type": "Polygon", "coordinates": [ [ [ -5.586788, 6.450398 ], [ -5.587443, 6.451245 ], [ -5.589102, 6.45089 ], [ -5.589195, 6.450315 ], [ -5.589227, 6.449908 ], [ -5.587154, 6.448701 ], [ -5.587037, 6.448794 ], [ -5.586982, 6.449104 ], [ -5.586788, 6.450398 ] ] ] } },
{ "type": "Feature", "properties": { "plot_id": "EX-0094", "producteur": "Producteur fictif 094", "surface_ha": 4.82 }, "geometry": { "type": "Polygon", "coordinates": [ [ [ -5.582549, 6.451389 ], [ -5.582599, 6.451381 ], [ -5.583105, 6.450817 ], [ -5.583534, 6.450253 ], [ -5.582021, 6.448599 ], [ -5.581345, 6.448528 ], [ -5.580821, 6.448917 ], [ -5.58076, 6.449012 ], [ -5.582549, 6.451389 ] ] ] } },
{ "type": "Feature", "properties": { "plot_id": "EX-0095", "producteur": "Producteur fictif 095", "surface_ha": 2.03 }, "geometry": { "type": "Polygon", "coordinates": [ [ [ -5.575357, 6.450881 ], [ -5.575526, 6.450755 ], [ -5.575702, 6.450948 ], [ -5.57686, 6.449843 ], [ -5.577051, 6.449805 ], [ -5.576571, 6.449231 ], [ -5.576056, 6.448991 ], [ -5.575803, 6.449065 ], [ -5.575357, 6.450881 ] ] ] } },
{ "type": "Feature", "properties": { "plot_id": "EX-0096", "producteur": "Producteur fictif 096", "surface_ha": 5.52 }, "geometry": { "type": "Polygon", "coordinates": [ [ [ -5.56882, 6.450788 ], [ -5.569255, 6.451296 ], [ -5.570998, 6.45093 ], [ -5.569711, 6.448315 ], [ -5.569686, 6.448485 ], [ -5.568764, 6.448734 ], [ -5.568703, 6.449507 ], [ -5.568265, 6.449934 ], [ -5.56882, 6.450788 ] ] ] } },
{ "type": "Feature", "properties": { "plot_id": "EX-0097", "producteur": "Producteur fictif 097", "surface_ha": 2.7 }, "geometry": { "type": "Polygon", "coordinates": [ [ [ -5.598879, 6.456215 ], [ -5.599007, 6.456312 ], [ -5.599992, 6.456906 ], [ -5.600368, 6.457025 ], [ -5.60089, 6.456391 ], [ -5.601027, 6.456172 ], [ -5.600962, 6.455845 ], [ -5.60058, 6.455121 ], [ -5.598879, 6.456215 ] ] ] } },
{ "type": "Feature", "properties": { "plot_id": "EX-0098", "producteur": "Producteur fictif 098", "surface_ha": 3.04 }, "geometry": { "type": "Polygon", "coordinates": [ [ [ -5.593017, 6.456213 ], [ -5.593147, 6.456306 ], [ -5.593796, 6.457002 ], [ -5.594021, 6.456837 ], [ -5.594814, 6.456628 ], [ -5.594692, 6.455461 ], [ -5.594785, 6.45528 ], [ -5.593475, 6.45506 ], [ -5.593017, 6.456213 ] ] ] } },
{ "type": "Feature", "properties": { "plot_id": "EX-0099", "producteur": "Producteur fictif 099", "surface_ha": 3.6 }, "geometry": { "type": "Polygon", "coordinates": [ [ [ -5.586652, 6.456052 ], [ -5.586856, 6.456186 ], [ -5.587012, 6.456562 ], [ -5.589119, 6.456353 ], [ -5.58899, 6.455587 ], [ -5.589261, 6.455399 ], [ -5.589043, 6.4551 ], [ -5.587911, 6.454728 ], [ -5.586652, 6.456052 ] ] ] } },
{ "type": "Feature", "properties": { "plot_id": "EX-0100", "producteur": "Producteur fictif 100", "surface_ha": 1.61 }, "geometry": { "type": "Polygon", "coordinates": [ [ [ -5.581485, 6.456516 ], [ -5.58151, 6.456637 ], [ -5.582234, 6.456696 ], [ -5.582582, 6.456369 ], [ -5.582567, 6.456352 ], [ -5.582244, 6.455247 ], [ -5.581851, 6.455343 ], [ -5.581309, 6.455686 ], [ -5.581485, 6.456516 ] ] ] } },
{ "type": "Feature", "properties": { "plot_id": "EX-0101", "producteur": "Producteur fictif 101", "surface_ha": 7.88 }, "geometry": { "type": "Polygon", "coordinates": [ [ [ -5.576604522565809, 6.455359361706064 ], [ -5.575004522565809, 6.456959361706064 ], [ -5.575004522565809, 6.455359361706064 ], [ -5.576604522565809, 6.456959361706064 ], [ -5.576604522565809, 6.455359361706064 ] ] ] } },
{ "type": "Feature", "properties": { "plot_id": "EX-0102", "producteur": "Producteur fictif 102", "surface_ha": 1.08 }, "geometry": { "type": "Polygon", "coordinates": [ [ [ -5.569755, 6.45668 ], [ -5.570273, 6.456536 ], [ -5.570565, 6.456437 ], [ -5.57049, 6.456339 ], [ -5.570299, 6.455447 ], [ -5.569728, 6.455481 ], [ -5.569698, 6.45543 ], [ -5.569597, 6.455603 ], [ -5.569755, 6.45668 ] ] ] } },
{ "type": "Feature", "properties": { "plot_id": "EX-0103", "producteur": "Producteur fictif 103", "surface_ha": 1.07 }, "geometry": { "type": "Polygon", "coordinates": [ [ [ -5.599505, 6.462544 ], [ -5.600692, 6.462015 ], [ -5.600633, 6.461875 ], [ -5.600488, 6.461658 ], [ -5.600193, 6.461424 ], [ -5.599964, 6.46125 ], [ -5.599715, 6.46144 ], [ -5.599603, 6.461357 ], [ -5.599505, 6.462544 ] ] ] } },
{ "type": "Feature", "properties": { "plot_id": "EX-0104", "producteur": "Producteur fictif 104", "surface_ha": 1.46 }, "geometry": { "type": "Polygon", "coordinates": [ [ [ -5.593485, 6.462393 ], [ -5.594178, 6.462695 ], [ -5.594608, 6.462538 ], [ -5.594606, 6.462365 ], [ -5.594658, 6.462311 ], [ -5.594718, 6.462028 ], [ -5.593814, 6.461402 ], [ -5.593246, 6.461994 ], [ -5.593485, 6.462393 ] ] ] } },
{ "type": "Feature", "properties": { "plot_id": "EX-0105", "producteur": "Producteur fictif 105", "surface_ha": 7.56 }, "geometry": { "type": "Polygon", "coordinates": [ [ [ -5.58837, 6.463763 ], [ -5.588876, 6.463167 ], [ -5.589584, 6.461041 ], [ -5.588786, 6.460444 ], [ -5.58818, 6.460553 ], [ -5.586493, 6.461355 ], [ -5.586655, 6.461512 ], [ -5.586287, 6.461763 ], [ -5.58837, 6.463763 ] ] ] } },
{ "type": "Feature", "properties": { "plot_id": "EX-0106", "producteur": "Producteur fictif 106", "surface_ha": 7.56 }, "geometry": { "type": "Polygon", "coordinates": [ [ [ -5.58777, 6.463763 ], [ -5.588276, 6.463167 ], [ -5.588984, 6.461041 ], [ -5.588186, 6.460444 ], [ -5.58758, 6.460553 ], [ -5.585893, 6.461355 ], [ -5.586055, 6.461512 ], [ -5.585687, 6.461763 ], [ -5.58777, 6.463763 ] ] ] } },
{ "type": "Feature", "properties": { "plot_id": "EX-0107", "producteur": "Producteur fictif 107", "surface_ha": 4.4 }, "geometry": { "type": "Polygon", "coordinates": [ [ [ -5.575884, 6.463224 ], [ -5.576758, 6.462967 ], [ -5.577155, 6.462639 ], [ -5.577238, 6.462122 ], [ -5.577322, 6.461874 ], [ -5.576009, 6.460785 ], [ -5.575057, 6.461259 ], [ -5.574919, 6.46184 ], [ -5.575884, 6.463224 ] ] ] } },
{ "type": "Feature", "properties": { "plot_id": "EX-0108", "producteur": "Producteur fictif 108", "surface_ha": 4.58 }, "geometry": { "type": "Polygon", "coordinates": [ [ [ -5.568643, 6.462244 ], [ -5.568888, 6.462433 ], [ -5.569227, 6.463274 ], [ -5.569388, 6.463086 ], [ -5.571081, 6.462709 ], [ -5.570977, 6.461107 ], [ -5.570596, 6.460754 ], [ -5.570397, 6.460515 ], [ -5.568643, 6.462244 ] ] ] } },
{ "type": "Feature", "properties": { "plot_id": "EX-0109", "producteur": "Producteur fictif 109", "surface_ha": 2.05 }, "geometry": { "type": "Polygon", "coordinates": [ [ [ -5.599285, 6.468318 ], [ -5.599462, 6.468697 ], [ -5.600597, 6.468544 ], [ -5.600902, 6.46796 ], [ -5.600727, 6.467854 ], [ -5.599962, 6.467172 ], [ -5.59987, 6.467172 ], [ -5.59919, 6.4676 ], [ -5.599285, 6.468318 ] ] ] } },
{ "type": "Feature", "properties": { "plot_id": "EX-0110", "producteur": "Producteur fictif 110", "surface_ha": 2.62 }, "geometry": { "type": "Polygon", "coordinates": [ [ [ -5.592602, 6.468507 ], [ -5.594318, 6.46946 ], [ -5.595282, 6.468383 ], [ -5.595127, 6.467081 ], [ -5.594587, 6.466678 ], [ -5.594, 6.466726 ], [ -5.593579, 6.466594 ], [ -5.593008, 6.46681 ], [ -5.592602, 6.468507 ] ] ] } },
{ "type": "Feature", "properties": { "plot_id": "EX-0111", "producteur": "Producteur fictif 111", "surface_ha": 2.88 }, "geometry": { "type": "Polygon", "coordinates": [ [ [ -5.587522, 6.468984 ], [ -5.589085, 6.467369 ], [ -5.588866, 6.467299 ], [ -5.588282, 6.466983 ], [ -5.588244, 6.467032 ], [ -5.587242, 6.467268 ], [ -5.586961, 6.467451 ], [ -5.586728, 6.467758 ], [ -5.587522, 6.468984 ] ] ] } },
{ "type": "Feature", "properties": { "plot_id": "EX-0112", "producteur": "Producteur fictif 112", "surface_ha": 6.22 }, "geometry": { "type": "Polygon", "coordinates": [ [ [ -5.580887, 6.469168 ], [ -5.581774, 6.469615 ], [ -5.583537, 6.468449 ], [ -5.583444, 6.467977 ], [ -5.581333, 6.466643 ], [ -5.580787, 6.46721 ], [ -5.580816, 6.467355 ], [ -5.580523, 6.467277 ], [ -5.580887, 6.469168 ] ] ] } },
{ "type": "Feature", "properties": { "plot_id": "EX-0113", "producteur": "Producteur fictif 113", "surface_ha": 2.78 }, "geometry": { "type": "Polygon", "coordinates": [ [ [ -5.576158, 6.468864 ], [ -5.576778, 6.468609 ], [ -5.576892, 6.467568 ], [ -5.575849, 6.467112 ], [ -5.575654, 6.467167 ], [ -5.575138, 6.467585 ], [ -5.575018, 6.467696 ], [ -5.574886, 6.467998 ], [ -5.576158, 6.468864 ] ] ] } },
{ "type": "Feature", "properties": { "plot_id": "EX-0114", "producteur": "Producteur fictif 114", "surface_ha": 4.56 }, "geometry": { "type": "Polygon", "coordinates": [ [ [ -5.568874, 6.468617 ], [ -5.571311, 6.468521 ], [ -5.571131, 6.467098 ], [ -5.571098, 6.467104 ], [ -5.56978, 6.466691 ], [ -5.569596, 6.466658 ], [ -5.569194, 6.466861 ], [ -5.568885, 6.467398 ], [ -5.568874, 6.468617 ] ] ] } },
{ "type": "Feature", "properties": { "plot_id": "", "producteur": "Producteur fictif 115", "surface_ha": 7.34 }, "geometry": { "type": "Polygon", "coordinates": [ [ [ -5.597919, 6.475107 ], [ -5.600006, 6.475761 ], [ -5.600696, 6.476213 ], [ -5.601307, 6.475195 ], [ -5.601666, 6.475219 ], [ -5.602191, 6.474451 ], [ -5.602148, 6.473759 ], [ -5.601931, 6.472972 ], [ -5.597919, 6.475107 ] ] ] } },
{ "type": "Feature", "properties": { "plot_id": "EX-0116", "producteur": "Producteur fictif 116", "surface_ha": 7.17 }, "geometry": { "type": "Polygon", "coordinates": [ [ [ -5.596175, 6.47216 ], [ -5.595675, 6.471699 ], [ -5.594564, 6.471109 ], [ -5.593915, 6.471069 ], [ -5.593184, 6.471739 ], [ -5.591639, 6.473095 ], [ -5.591327, 6.473332 ], [ -5.591356, 6.473921 ], [ -5.596175, 6.47216 ] ] ] } },
{ "type": "Feature", "properties": { "plot_id": "EX-0117", "producteur": "Producteur fictif 117", "surface_ha": 7.6 }, "geometry": { "type": "Polygon", "coordinates": [ [ [ -5.586788, 6.474756 ], [ -5.588161, 6.475616 ], [ -5.589236, 6.475294 ], [ -5.589693, 6.47378 ], [ -5.589031, 6.472982 ], [ -5.588292, 6.47224 ], [ -5.587448, 6.472623 ], [ -5.587329, 6.472763 ], [ -5.586788, 6.474756 ] ] ] } },
{ "type": "Feature", "properties": { "plot_id": "EX-0118", "producteur": "Producteur fictif 118", "surface_ha": 6.48 }, "geometry": { "type": "Polygon", "coordinates": [ [ [ -5.584261, 6.473462 ], [ -5.583439, 6.472423 ], [ -5.581928, 6.471381 ], [ -5.580923, 6.472311 ], [ -5.580264, 6.472383 ], [ -5.579946, 6.472386 ], [ -5.579769, 6.472908 ], [ -5.579714, 6.473311 ], [ -5.584261, 6.473462 ] ] ] } },
{ "type": "Feature", "properties": { "plot_id": "EX-0119", "producteur": "Producteur fictif 119", "surface_ha": 3.01 }, "geometry": { "type": "Polygon", "coordinates": [ [ [ -5.575827, 6.4749 ], [ -5.575979, 6.475061 ], [ -5.576783, 6.474681 ], [ -5.577053, 6.47415 ], [ -5.576947, 6.474022 ], [ -5.57604, 6.473113 ], [ -5.575733, 6.473077 ], [ -5.574949, 6.473995 ], [ -5.575827, 6.4749 ] ] ] } },
{ "type": "Feature", "properties": { "plot_id": "EX-0120", "producteur": "Producteur fictif 120", "surface_ha": 3.01 }, "geometry": { "type": "Polygon", "coordinates": [ [ [ -5.575827, 6.4749 ], [ -5.575979, 6.475061 ], [ -5.576783, 6.474681 ], [ -5.577053, 6.47415 ], [ -5.576947, 6.474022 ], [ -5.57604, 6.473113 ], [ -5.575733, 6.473077 ], [ -5.574949, 6.473995 ], [ -5.575827, 6.4749 ] ] ] } }
]
}
